PROMETHEUS 2-1          
1 41854U 16067G   24131.74491208  .00024536  00000+0  12981-2 0  9990
2 41854  98.0988 304.4196 0013739 182.2426 177.8745 15.15366346410061
PROMETHEUS 2-3          
1 41855U 16067H   24131.47646701  .00024106  00000+0  12772-2 0  9992
2 41855  98.0916 303.6590 0011626 191.9681 168.1275 15.15342854410020
DIDO-2                  
1 42000U 17008BE  24131.69617988  .00165952  00000+0  10898-2 0  9992
2 42000  97.1364 192.1398 0004443 229.4782 130.6097 15.75228567402875
AALTO-1                 
1 42775U 17036L   24131.80548236  .00150923  00000+0  17873-2 0  9996
2 42775  97.1079 161.1409 0002822   5.2755 354.8532 15.60742728383264
URSA MAIOR              
1 42776U 17036M   24131.57083204  .00196022  00000+0  13416-2 0  9999
2 42776  97.1027 164.5451 0000733 259.2670 100.8513 15.74191135383452
CICERO 6                
1 42793U 17036AE  24131.62657862  .00335788  00000+0  15891-2 0  9994
2 42793  97.0840 168.9443 0001852 198.9270 161.1931 15.82124566383851
CORVUS BC2              
1 42846U 17042X   24131.50430418  .00005717  00000+0  49723-3 0  9991
2 42846  97.3738 318.7169 0008381 178.8230 181.3014 14.97299397371804
CORVUS BC1              
1 42847U 17042Y   24131.46921344  .00007282  00000+0  62938-3 0  9992
2 42847  97.3738 319.0801 0008447 172.1008 188.0350 14.97456497371819
MIRATA                  
1 43015U 17073C   24131.62446195  .00034285  00000+0  16663-2 0  9994
2 43015  97.5997  16.8369 0175892  29.7661 331.3433 15.05705499350673
MAKERSAT 0              
1 43016U 17073D   24131.41201936  .00023193  00000+0  13340-2 0  9999
2 43016  97.5855  11.4609 0201172  50.0105 311.8587 14.96891279350265
CORVUS BC3              
1 43118U 18004H   24131.17148022  .00255963  00000+0  13794-2 0  9991
2 43118  97.2857 216.0201 0002587 298.4703  61.6304 15.79474650352901
GOMX-4B                 
1 43196U 18015E   24131.41995235  .00070128  00000+0  90802-3 0  9996
2 43196  97.6066 302.2735 0008132 100.9742 259.2428 15.58632411349631
GOMX-4A                 
1 43197U 18015F   24131.79478773  .00158262  00000+0  14240-2 0  9998
2 43197  97.5980 307.2073 0005798  90.5470 269.6454 15.67703091350003
CICERO 10               
1 43690U 18088A   24131.47764596  .00144978  00000+0  12322-2 0  9990
2 43690  85.0155 206.4302 0004765 109.5501 250.6281 15.69156571306276
PROXIMA I               
1 43694U 18088E   24131.63352150  .00835885  34439-3  13894-2 0  9997
2 43694  84.9991 199.0003 0006461 256.5460 103.5106 16.03042430306823
PROXIMA II              
1 43696U 18088G   24131.68595609  .00658914  19086-3  13824-2 0  9992
2 43696  85.0012 199.1849 0005964 257.1191 102.9427 15.98942926306815
SIRION PATHFINDER-2     
1 43759U 18099B   24131.66705707  .00007714  00000+0  58841-3 0  9991
2 43759  97.5301 188.8771 0013415  61.3490 298.9083 15.02216215296878
CORVUS BC4              
1 43767U 18099K   24131.41730125  .00008126  00000+0  63042-3 0  9992
2 43767  97.5187 185.9542 0011132 120.3723 239.8604 15.01572281296726
MOVE-II                 
1 43780U 18099Y   24131.44457958  .00026083  00000+0  14373-2 0  9994
2 43780  97.5234 194.8225 0008614 111.8577 248.3572 15.13945999297211
SPACEBEE-7              
1 43816U 18099BL  24131.45899393  .00020586  00000+0  12569-2 0  9995
2 43816  97.5500 195.6423 0010988  65.1425 295.0946 15.10278313296710
SPACEBEE-6              
1 43818U 18099BN  24131.54796453  .00039510  00000+0  18055-2 0  9993
2 43818  97.5429 200.4779 0009070  71.6752 288.5469 15.20414833297185
SHIELDS 1               
1 43850U 18104B   24131.49714425  .00018509  00000+0  51847-3 0  9991
2 43850  85.0207 308.6770 0010358 203.3369 156.7412 15.36438385300373
SONATE                  
1 44400U 19038Q   24131.54909994  .00026416  00000+0  84486-3 0  9994
2 44400  97.7127 124.0144 0014636 233.0151 126.9750 15.32303709268311
LUCKY-7                 
1 44406U 19038W   24131.48582230  .00042822  00000+0  10398-2 0  9992
2 44406  97.7032 127.5376 0012435 211.7530 148.2967 15.40816421268558
BEESAT 9                
1 44412U 19038AC  24131.75319555  .00370820  00000+0  19476-2 0  9995
2 44412  97.6768 136.3843 0010912 167.3413 192.8129 15.79679865268894
JAISAT-1                
1 44419U 19038F   24131.80433932  .00429415  00000+0  25128-2 0  9990
2 44419  97.6752 137.3790 0010310 164.0376 196.1216 15.77107462269274
DUCHIFAT-3              
1 44854U 19089C   24131.77658226  .00024267  00000+0  12737-2 0  9998
2 44854  36.9581 275.9448 0006608 136.0435 224.0838 15.14953718242526
M2 PATHFINDER           
1 45727U 20037E   24131.42044191  .00005567  00000+0  49110-3 0  9993
2 45727  97.7746 308.0669 0010471 246.6744 113.3376 14.96771827210295
NETSAT-4                
1 46504U 20068U   24131.41866597  .00015613  00000+0  85655-3 0  9999
2 46504  97.8046  87.5694 0011987 124.7038 235.5324 15.14193664198456
NETSAT-3                
1 46505U 20068V   24131.38952913  .00012979  00000+0  72326-3 0  9997
2 46505  97.8018  87.0929 0011060 131.3405 228.8779 15.13687637198441
NETSAT-1                
1 46506U 20068W   24131.59868291  .00010952  00000+0  63652-3 0  9997
2 46506  97.8043  86.8634 0009439 138.8135 221.3809 15.12236908198441
NETSAT-2                
1 46507U 20068X   24131.43352815  .00015745  00000+0  86648-3 0  9996
2 46507  97.8029  87.2298 0008589 142.6754 217.5075 15.14109865198403
WILDTRACKCUBE-SIMBA     
1 47941U 21022K   24131.86881098  .00027868  00000+0  12840-2 0  9998
2 47941  97.4643  28.9924 0013641 275.9251  84.0429 15.20164567172790
BEESAT-6                
1 47957U 21022AB  24131.48989706  .00170429  00000+0  24873-2 0  9999
2 47957  97.4444  37.9004 0005788 189.0997 171.0153 15.55057427173178
SMOG-1                  
1 47964U 21022AJ  24131.27544512  .00152147  00000+0  23218-2 0  9995
2 47964  97.4672  40.7691 0007276 183.7195 176.4005 15.53883336172323
BCCSAT-1                
1 48041U 21022AK  24131.45637111  .00089126  00000+0  20324-2 0  9991
2 48041  97.4662  37.4945 0006131 199.3767 160.7248 15.42559404172106
BEESAT-5                
1 48083U 21022AM  24131.26199945  .00272997  00000+0  28052-2 0  9990
2 48083  97.4186  38.7961 0006794 165.6949 194.4504 15.64002500172392
BEESAT-7                
1 48084U 21022AN  24130.48459206  .00087607  00000+0  15488-2 0  9994
2 48084  97.4636  37.0468 0006336 207.1601 152.9320 15.50002032171744
BEESAT-8                
1 48085U 21022AP  24131.52150762  .00038880  00000+0  13346-2 0  9996
2 48085  97.4785  33.2724 0009817 255.8624 104.1525 15.29992084172114
LEDSAT                  
1 49069U 21073D   24131.43649619  .00021261  00000+0  89382-3 0  9998
2 49069  97.4391 202.8544 0020527  60.5493 299.7789 15.23241189150701
SITRO-AIS 5 (KATYS)     
1 57176U 23091L   24131.87038635  .00016598  00000+0  10872-2 0  9990
2 57176  97.6155 184.3864 0016436 245.6667 114.2845 15.07686853 47871
SITRO-AIS 6 (CHIRKIN)   
1 57192U 23091AC  24131.85704172  .00015936  00000+0  10425-2 0  9991
2 57192  97.6148 184.3954 0016336 245.4904 114.4620 15.07745132 47871
SITRO-AIS 8 (ANOKHIN)   
1 57193U 23091AD  24131.83226644  .00019220  00000+0  12471-2 0  9996
2 57193  97.6143 184.4208 0016334 247.1264 112.8240 15.08004706 47872
SITRO-AIS 7 (FARTUSHNIY)
1 57194U 23091AE  24131.86100203  .00016119  00000+0  10556-2 0  9998
2 57194  97.6148 184.3844 0016144 245.9941 113.9597 15.07705767 47871
SITRO-AIS 10 (BURDAEV)  
1 57199U 23091AK  24131.84655788  .00020392  00000+0  12635-2 0  9992
2 57199  97.6158 185.2271 0011595 232.8753 127.1417 15.09739284 47929
SITRO-AIS 9 (SHCHUKIN)  
1 57201U 23091AM  24131.84454355  .00021253  00000+0  13170-2 0  9995
2 57201  97.6152 185.2090 0011572 232.6947 127.3227 15.09726631 47927
SITRO-AIS 12 (SMIRENNIY)
1 57204U 23091AQ  24131.81163737  .00019430  00000+0  11986-2 0  9993
2 57204  97.6170 185.2924 0011476 225.9245 134.1040 15.09912464 47925
SITRO-AIS 11 (SHEFFER)  
1 57208U 23091AU  24131.86560769  .00019808  00000+0  12191-2 0  9996
2 57208  97.6165 185.3648 0011312 225.5537 134.4768 15.09993885 47933
SITRO-AIS 29            
1 59052U 24039B   24131.87267364  .00048693  00000+0  18889-2 0  9998
2 59052  97.3908  94.2343 0017953 358.1220   1.9948 15.25801942 10908
SITRO-AIS 30            
1 59053U 24039C   24131.87188681  .00045800  00000+0  17768-2 0  9995
2 59053  97.3907  94.2328 0018112 358.8810   1.2385 15.25812483 10899
SITRO-AIS 31            
1 59054U 24039D   24131.86785843  .00046784  00000+0  18093-2 0  9992
2 59054  97.3907  94.2382 0017942 358.7330   1.3860 15.25914669 10917
SITRO-AIS 33            
1 59055U 24039E   24131.86301807  .00047849  00000+0  18439-2 0  9994
2 59055  97.3911  94.2472 0017732 359.6785   0.4439 15.26030706 10907
SITRO-AIS 35            
1 59056U 24039F   24131.86053902  .00047137  00000+0  18143-2 0  9997
2 59056  97.3909  94.2494 0017560 359.8450   0.2780 15.26077403 10901
SITRO-AIS 32            
1 59057U 24039G   24131.86353230  .00044465  00000+0  17169-2 0  9993
2 59057  97.3910  94.2459 0017548 359.9419   0.1814 15.25986448 10901
SITRO-AIS 34            
1 59058U 24039H   24131.86190059  .00046178  00000+0  17804-2 0  9991
2 59058  97.3911  94.2494 0017722 359.7520   0.3706 15.26023084 10908
SITRO-AIS 36            
1 59059U 24039J   24131.85759268  .00048166  00000+0  18511-2 0  9999
2 59059  97.3909  94.2537 0017294   0.1238   0.0002 15.26126111 10902
SITRO-AIS 49            
1 59060U 24039K   24131.85693982  .00047457  00000+0  18247-2 0  9999
2 59060  97.3909  94.2541 0017295 359.8402   0.2828 15.26114948 10900
SITRO-AIS 50            
1 59061U 24039L   24131.85274715  .00046286  00000+0  17721-2 0  9994
2 59061  97.3908  94.2597 0017230   0.1415 359.9826 15.26264260 10905
SITRO-AIS 51            
1 59062U 24039M   24131.85176797  .00045945  00000+0  17592-2 0  9993
2 59062  97.3909  94.2611 0017185 359.8775   0.2457 15.26263698 10906
